      2.10          N: GNSS NAV DATA                        RINEX VERSION / TYPE
fic2rin                                 09/04/2020 00:17:48 PGM / RUN BY / DATE
                                                            END OF HEADER
17 20  9  3 12  0  0.0 3.205365501344e-04 5.570655048359e-12 0.000000000000e+00
    4.400000000000e+01 4.090625000000e+01 3.767299780300e-09 3.075148880591e+00
    2.112239599228e-06 1.336647232529e-02 1.248158514500e-05 5.153755407333e+03
    3.888000000000e+05 2.682209014893e-07 3.230058458043e-01-7.636845111847e-08
    9.839304745737e-01 1.461562500000e+02-1.637821497085e+00-7.387093416378e-09
    2.142946405177e-12 1.000000000000e+00 2.121000000000e+03 0.000000000000e+00
    3.400000000000e+00 0.000000000000e+00-1.117587089539e-08 4.400000000000e+01
    3.816000000000e+05 4.000000000000e+00
16 20  9  3 12  0  0.0-2.041822299361e-04-5.002220859751e-12 0.000000000000e+00
    1.120000000000e+02-5.915625000000e+01 4.357681514926e-09-2.254730390891e+00
   -3.401190042496e-06 1.153922616504e-02 6.899237632751e-06 5.153562339783e+03
    3.888000000000e+05 1.117587089539e-07-6.923475488144e-01-1.732259988785e-07
    9.771308898580e-01 2.534687500000e+02 6.283390033787e-01-7.903900657759e-09
   -2.582250418238e-10 1.000000000000e+00 2.121000000000e+03 0.000000000000e+00
    2.400000000000e+00 0.000000000000e+00-1.071020960808e-08 1.120000000000e+02
    3.816000000000e+05 4.000000000000e+00
11 20  9  3 12  0  0.0-1.746881753206e-04 1.057287590811e-11 0.000000000000e+00
    9.000000000000e+01 7.959375000000e+01 5.799884445610e-09 4.817727476316e-01
    4.107132554054e-06 1.599723508116e-02 8.244067430496e-06 5.153720371246e+03
    3.888000000000e+05-1.452863216400e-07 8.387214396117e-01-1.881271600723e-07
    9.133715437396e-01 1.982500000000e+02 2.036944570986e+00-8.945015452941e-09
    3.225134339791e-10 1.000000000000e+00 2.121000000000e+03 0.000000000000e+00
    2.400000000000e+00 0.000000000000e+00-1.210719347000e-08 9.000000000000e+01
    3.816000000000e+05 4.000000000000e+00
12 20  9  3 12  0  0.0 7.211510092020e-05-5.002220859751e-12 0.000000000000e+00
    1.120000000000e+02-5.400000000000e+01 4.516259548909e-09-3.885628812494e-01
   -2.792105078697e-06 7.906622020528e-03 7.158145308495e-06 5.153630989075e+03
    3.888000000000e+05-1.303851604462e-08-7.111913585576e-01 1.117587089539e-07
    9.769239001160e-01 2.572187500000e+02 1.167824454405e+00-8.175340535748e-09
   -3.785871982478e-10 1.000000000000e+00 2.121000000000e+03 0.000000000000e+00
    2.400000000000e+00 0.000000000000e+00-1.210719347000e-08 1.120000000000e+02
    3.816000000000e+05 4.000000000000e+00
26 20  9  3 12  0  0.0 2.724938094616e-04 6.480149750132e-12 0.000000000000e+00
    1.040000000000e+02-5.287500000000e+01 5.180215776780e-09-1.188896200607e+00
   -2.902001142502e-06 4.904841422103e-03 5.293637514114e-06 5.153665889740e+03
    3.888000000000e+05 6.705522537231e-08-8.184886520577e-01-1.136213541031e-07
    9.451959426335e-01 2.652812500000e+02 2.009596682397e-01-8.454637883890e-09
   -2.767972440020e-10 1.000000000000e+00 2.121000000000e+03 0.000000000000e+00
    2.400000000000e+00 0.000000000000e+00 6.984919309616e-09 1.040000000000e+02
    3.816000000000e+05 4.000000000000e+00
18 20  9  3 12  0  0.0 2.831071615219e-04 7.389644451905e-12 0.000000000000e+00
    8.700000000000e+01 7.700000000000e+01 4.813771941495e-09 1.481884253330e+00
    4.030764102936e-06 9.821424027905e-04 4.213303327560e-06 5.153712108612e+03
    3.888000000000e+05 1.490116119385e-08 1.335538323286e+00-1.378357410431e-07
    9.646448050538e-01 2.960937500000e+02 2.699904010548e+00-8.429279684762e-09
    2.307238962907e-10 1.000000000000e+00 2.121000000000e+03 0.000000000000e+00
    2.400000000000e+00 0.000000000000e+00-8.381903171539e-09 3.430000000000e+02
    3.816000000000e+05 4.000000000000e+00
28 20  9  3 12  0  0.0 6.827744655311e-04-3.979039320257e-12 0.000000000000e+00
    1.780000000000e+02-5.312500000000e+01 4.285892810353e-09-2.346427480020e+00
   -2.529472112656e-06 1.841075636912e-02 6.835907697678e-06 5.153661233902e+03
    3.888000000000e+05 1.601874828339e-07-6.886736977724e-01 2.253800630569e-07
    9.761750411287e-01 2.479687500000e+02-1.398482824034e+00-7.672819603734e-09
   -3.200133298397e-10 1.000000000000e+00 2.121000000000e+03 0.000000000000e+00
    4.850000000000e+00 0.000000000000e+00-1.117587089539e-08 1.780000000000e+02
    3.816000000000e+05 4.000000000000e+00
23 20  9  3 12  0  0.0 5.459366366267e-05 7.162270776462e-12 0.000000000000e+00
    1.420000000000e+02-8.221875000000e+01 4.754483757618e-09 1.252029713297e+00
   -4.524365067482e-06 9.856595424935e-04 4.414469003677e-06 5.153637042999e+03
    3.888000000000e+05 5.029141902924e-08 2.335042921327e+00 2.607703208923e-08
    9.614727948926e-01 2.973125000000e+02 1.811060327715e+00-8.378920444240e-09
   -5.332364971548e-10 1.000000000000e+00 2.121000000000e+03 0.000000000000e+00
    6.144000000000e+03 6.300000000000e+01-8.381903171539e-09 6.540000000000e+02
    3.816000000000e+05 4.000000000000e+00
17 20  9  3 11 59 44.0 3.205356188118e-04 5.570655048359e-12 0.000000000000e+00
    6.000000000000e+00 4.090625000000e+01 3.767299780300e-09 3.072815112249e+00
    2.114102244377e-06 1.336647337303e-02 1.248158514500e-05 5.153755405426e+03
    3.887840000000e+05 2.682209014893e-07 3.230059730782e-01-7.636845111847e-08
    9.839304745737e-01 1.461562500000e+02-1.637821330312e+00-7.387093416378e-09
    1.785788670980e-12 1.000000000000e+00 2.121000000000e+03 0.000000000000e+00
    2.400000000000e+00 0.000000000000e+00-1.117587089539e-08 6.000000000000e+00
    3.818100000000e+05 4.000000000000e+00
19 20  9  3 11 59 44.0-1.098401844501e-04 5.115907697473e-12 0.000000000000e+00
    3.000000000000e+00 4.850000000000e+01 3.886590463522e-09-6.127584489232e-01
    2.510845661163e-06 9.295056690462e-03 1.270510256290e-05 5.153703962326e+03
    3.887840000000e+05-1.154839992523e-07 3.684604089750e-01-1.862645149231e-09
    9.821953761970e-01 1.498125000000e+02 1.710656762098e+00-7.787824394146e-09
    1.014327965117e-10 1.000000000000e+00 2.121000000000e+03 0.000000000000e+00
    2.400000000000e+00 0.000000000000e+00-1.536682248116e-08 3.000000000000e+00
    3.822000000000e+05 4.000000000000e+00
27 20  9  3 11 59 44.0-3.867838531733e-04-9.094947017729e-12 0.000000000000e+00
    2.000000000000e+00 2.618750000000e+01 3.902305403826e-09-3.113851408273e+00
    1.283362507820e-06 8.333098143339e-03 1.240335404873e-05 5.153674606323e+03
    3.887840000000e+05-1.043081283569e-07 2.640216808085e-01-8.381903171539e-08
    9.779847658825e-01 1.503750000000e+02 5.774479645227e-01-7.493169263434e-09
   -8.214627886510e-12 1.000000000000e+00 2.121000000000e+03 0.000000000000e+00
    2.400000000000e+00 0.000000000000e+00 1.862645149231e-09 2.000000000000e+00
    3.837600000000e+05 4.000000000000e+00
 4 20  9  3 12 44 32.0-1.318263821304e-04-4.206412995700e-12 0.000000000000e+00
    1.680000000000e+02-1.596875000000e+01 4.172316650879e-09 2.801532613524e+00
   -8.959323167801e-07 8.117172401398e-04 1.179985702038e-05 5.153644845963e+03
    3.914720000000e+05 1.303851604462e-08-2.844061179615e+00 0.000000000000e+00
    9.605931012898e-01 1.523750000000e+02-2.812334218380e+00-7.816754170615e-09
    5.714523747137e-11 1.000000000000e+00 2.121000000000e+03 0.000000000000e+00
    2.400000000000e+00 0.000000000000e+00-4.190951585770e-09 4.240000000000e+02
    3.843000000000e+05 4.000000000000e+00
19 20  9  3 13 59 44.0-1.098038628697e-04 5.115907697473e-12 0.000000000000e+00
    4.000000000000e+00 4.071875000000e+01 3.929449391625e-09 4.373182118532e-01
    2.130866050720e-06 9.293296257965e-03 1.194700598717e-05 5.153700473785e+03
    3.959840000000e+05-9.685754776001e-08 3.684044655247e-01-5.029141902924e-08
    9.821959979372e-01 1.635000000000e+02 1.710739893880e+00-7.792824602424e-09
    6.928860043404e-11 1.000000000000e+00 2.121000000000e+03 0.000000000000e+00
    2.400000000000e+00 0.000000000000e+00-1.536682248116e-08 4.000000000000e+00
    3.888000000000e+05 4.000000000000e+00
27 20  9  3 13 59 44.0-3.868490457535e-04-9.094947017729e-12 0.000000000000e+00
    1.700000000000e+01 2.375000000000e+01 3.905162665700e-09-2.063646543208e+00
    1.018866896629e-06 8.333225967363e-03 1.246295869350e-05 5.153674634933e+03
    3.959840000000e+05 5.960464477539e-08 2.639666882550e-01-1.136213541031e-07
    9.779849253405e-01 1.471250000000e+02 5.774197667767e-01-7.575672700033e-09
    1.007184810433e-10 1.000000000000e+00 2.121000000000e+03 0.000000000000e+00
    2.400000000000e+00 0.000000000000e+00 1.862645149231e-09 1.700000000000e+01
    3.888000000000e+05 4.000000000000e+00
 2 20  9  3 14  0  0.0-5.113431252539e-04-5.229594535194e-12 0.000000000000e+00
    6.400000000000e+01 8.912500000000e+01 4.699838624286e-09 2.297210711407e+00
    4.399567842484e-06 1.979179959744e-02 4.580244421959e-06 5.153769214630e+03
    3.960000000000e+05 2.626329660416e-07 1.241375933388e+00-1.508742570877e-07
    9.599912933650e-01 2.838125000000e+02-1.606432364596e+00-7.992118618106e-09
    2.775115594704e-10 1.000000000000e+00 2.121000000000e+03 0.000000000000e+00
    2.400000000000e+00 0.000000000000e+00-1.769512891769e-08 6.400000000000e+01
    3.888000000000e+05 4.000000000000e+00
 1 20  9  3 14  0  0.0 3.594113513827e-05 4.547473508865e-13 0.000000000000e+00
    1.130000000000e+02 7.640625000000e+01 4.396611707954e-09 2.057478457802e+00
    3.835186362267e-06 1.008415431716e-02 5.075708031654e-06 5.153698793411e+03
    3.960000000000e+05-2.514570951462e-07 1.319722771522e+00-1.527369022369e-07
    9.810301868165e-01 2.923125000000e+02 8.258513505151e-01-8.048906697843e-09
    3.832302487924e-10 1.000000000000e+00 2.121000000000e+03 0.000000000000e+00
    3.400000000000e+00 0.000000000000e+00 5.122274160385e-09 1.130000000000e+02
    3.888000000000e+05 4.000000000000e+00
